[
  {
    "COMMENT": "GENERATED VIA SPACETRACK.ORG API",
    "ORIGINATOR": "18 SPCS",
    "NORAD_CAT_ID": "41240",
    "OBJECT_NAME": "JASON 3",
    "OBJECT_TYPE": "PAYLOAD",
    "CLASSIFICATION_TYPE": "U",
    "INTLDES": "16002A",
    "EPOCH": "2023-05-16 20:39:02",
    "EPOCH_MICROSECONDS": "53152",
    "MEAN_MOTION": "12.80931391",
    "ECCENTRICITY": "0.000759",
    "INCLINATION": "66.0416",
    "RA_OF_ASC_NODE": "316.5817",
    "ARG_OF_PERICENTER": "272.242",
    "MEAN_ANOMALY": "87.7726",
    "EPHEMERIS_TYPE": "0",
    "ELEMENT_SET_NO": "999",
    "REV_AT_EPOCH": "34261",
    "BSTAR": "0.00021617",
    "MEAN_MOTION_DOT": "-0.00000011",
    "MEAN_MOTION_DDOT": "0",
    "FILE": "3909742",
    "TLE_LINE0": "0 JASON 3",
    "TLE_LINE1": "1 41240U 16002A   23136.86044043 -.00000011  00000-0  21617-3 0  9997",
    "TLE_LINE2": "2 41240  66.0416 316.5817 0007590 272.2420  87.7726 12.80931391342617",
    "OBJECT_ID": "2016-002A",
    "OBJECT_NUMBER": "41240",
    "SEMIMAJOR_AXIS": "7715.865",
    "PERIOD": "112.418",
    "APOGEE": "1343.586",
    "PERIGEE": "1331.873",
    "DECAYED": "0"
  },
  {
    "COMMENT": "GENERATED VIA SPACETRACK.ORG API",
    "ORIGINATOR": "18 SPCS",
    "NORAD_CAT_ID": "41240",
    "OBJECT_NAME": "JASON 3",
    "OBJECT_TYPE": "PAYLOAD",
    "CLASSIFICATION_TYPE": "U",
    "INTLDES": "16002A",
    "EPOCH": "2023-05-17 11:38:28",
    "EPOCH_MICROSECONDS": "76352",
    "MEAN_MOTION": "12.80931405",
    "ECCENTRICITY": "0.0007595",
    "INCLINATION": "66.0415",
    "RA_OF_ASC_NODE": "315.2844",
    "ARG_OF_PERICENTER": "272.1357",
    "MEAN_ANOMALY": "87.8789",
    "EPHEMERIS_TYPE": "0",
    "ELEMENT_SET_NO": "999",
    "REV_AT_EPOCH": "34283",
    "BSTAR": "0.00014406",
    "MEAN_MOTION_DOT": "-0.00000028",
    "MEAN_MOTION_DDOT": "0",
    "FILE": "3910102",
    "TLE_LINE0": "0 JASON 3",
    "TLE_LINE1": "1 41240U 16002A   23137.48504718 -.00000028  00000-0  14406-3 0  9992",
    "TLE_LINE2": "2 41240  66.0415 315.2844 0007595 272.1357  87.8789 12.80931405342835",
    "OBJECT_ID": "2016-002A",
    "OBJECT_NUMBER": "41240",
    "SEMIMAJOR_AXIS": "7715.865",
    "PERIOD": "112.418",
    "APOGEE": "1343.590",
    "PERIGEE": "1331.869",
    "DECAYED": "0"
  },
  {
    "COMMENT": "GENERATED VIA SPACETRACK.ORG API",
    "ORIGINATOR": "18 SPCS",
    "NORAD_CAT_ID": "41240",
    "OBJECT_NAME": "JASON 3",
    "OBJECT_TYPE": "PAYLOAD",
    "CLASSIFICATION_TYPE": "U",
    "INTLDES": "16002A",
    "EPOCH": "2023-05-17 21:00:36",
    "EPOCH_MICROSECONDS": "838368",
    "MEAN_MOTION": "12.8093144",
    "ECCENTRICITY": "0.0007599",
    "INCLINATION": "66.0415",
    "RA_OF_ASC_NODE": "314.4735",
    "ARG_OF_PERICENTER": "272.1006",
    "MEAN_ANOMALY": "87.9139",
    "EPHEMERIS_TYPE": "0",
    "ELEMENT_SET_NO": "999",
    "REV_AT_EPOCH": "34274",
    "BSTAR": "0.00014691",
    "MEAN_MOTION_DOT": "-0.00000027",
    "MEAN_MOTION_DDOT": "0",
    "FILE": "3910633",
    "TLE_LINE0": "0 JASON 3",
    "TLE_LINE1": "1 41240U 16002A   23137.87542637 -.00000027  00000-0  14691-3 0  9992",
    "TLE_LINE2": "2 41240  66.0415 314.4735 0007599 272.1006  87.9139 12.80931440342749",
    "OBJECT_ID": "2016-002A",
    "OBJECT_NUMBER": "41240",
    "SEMIMAJOR_AXIS": "7715.864",
    "PERIOD": "112.418",
    "APOGEE": "1343.593",
    "PERIGEE": "1331.866",
    "DECAYED": "0"
  },
  {
    "COMMENT": "GENERATED VIA SPACETRACK.ORG API",
    "ORIGINATOR": "18 SPCS",
    "NORAD_CAT_ID": "41240",
    "OBJECT_NAME": "JASON 3",
    "OBJECT_TYPE": "PAYLOAD",
    "CLASSIFICATION_TYPE": "U",
    "INTLDES": "16002A",
    "EPOCH": "2023-05-18 12:00:02",
    "EPOCH_MICROSECONDS": "859840",
    "MEAN_MOTION": "12.80931452",
    "ECCENTRICITY": "0.0007605",
    "INCLINATION": "66.0415",
    "RA_OF_ASC_NODE": "313.1761",
    "ARG_OF_PERICENTER": "271.9812",
    "MEAN_ANOMALY": "88.0333",
    "EPHEMERIS_TYPE": "0",
    "ELEMENT_SET_NO": "999",
    "REV_AT_EPOCH": "34296",
    "BSTAR": "0.000091554",
    "MEAN_MOTION_DOT": "-0.0000004",
    "MEAN_MOTION_DDOT": "0",
    "FILE": "3911006",
    "TLE_LINE0": "0 JASON 3",
    "TLE_LINE1": "1 41240U 16002A   23138.50003310 -.00000040  00000-0  91554-4 0  9992",
    "TLE_LINE2": "2 41240  66.0415 313.1761 0007605 271.9812  88.0333 12.80931452342969",
    "OBJECT_ID": "2016-002A",
    "OBJECT_NUMBER": "41240",
    "SEMIMAJOR_AXIS": "7715.864",
    "PERIOD": "112.418",
    "APOGEE": "1343.597",
    "PERIGEE": "1331.861",
    "DECAYED": "0"
  },
  {
    "COMMENT": "GENERATED VIA SPACETRACK.ORG API",
    "ORIGINATOR": "18 SPCS",
    "NORAD_CAT_ID": "41240",
    "OBJECT_NAME": "JASON 3",
    "OBJECT_TYPE": "PAYLOAD",
    "CLASSIFICATION_TYPE": "U",
    "INTLDES": "16002A",
    "EPOCH": "2023-05-18 13:52:28",
    "EPOCH_MICROSECONDS": "613280",
    "MEAN_MOTION": "12.80931434",
    "ECCENTRICITY": "0.0007605",
    "INCLINATION": "66.0415",
    "RA_OF_ASC_NODE": "313.0139",
    "ARG_OF_PERICENTER": "271.9828",
    "MEAN_ANOMALY": "88.0316",
    "EPHEMERIS_TYPE": "0",
    "ELEMENT_SET_NO": "999",
    "REV_AT_EPOCH": "34283",
    "BSTAR": "0.000066046",
    "MEAN_MOTION_DOT": "-0.00000046",
    "MEAN_MOTION_DDOT": "0",
    "FILE": "3911221",
    "TLE_LINE0": "0 JASON 3",
    "TLE_LINE1": "1 41240U 16002A   23138.57810895 -.00000046  00000-0  66046-4 0  9997",
    "TLE_LINE2": "2 41240  66.0415 313.0139 0007605 271.9828  88.0316 12.80931434342831",
    "OBJECT_ID": "2016-002A",
    "OBJECT_NUMBER": "41240",
    "SEMIMAJOR_AXIS": "7715.864",
    "PERIOD": "112.418",
    "APOGEE": "1343.597",
    "PERIGEE": "1331.861",
    "DECAYED": "0"
  },
  {
    "COMMENT": "GENERATED VIA SPACETRACK.ORG API",
    "ORIGINATOR": "18 SPCS",
    "NORAD_CAT_ID": "41240",
    "OBJECT_NAME": "JASON 3",
    "OBJECT_TYPE": "PAYLOAD",
    "CLASSIFICATION_TYPE": "U",
    "INTLDES": "16002A",
    "EPOCH": "2023-05-18 21:22:11",
    "EPOCH_MICROSECONDS": "625312",
    "MEAN_MOTION": "12.80931478",
    "ECCENTRICITY": "0.0007602",
    "INCLINATION": "66.0415",
    "RA_OF_ASC_NODE": "312.3652",
    "ARG_OF_PERICENTER": "272.0563",
    "MEAN_ANOMALY": "87.9582",
    "EPHEMERIS_TYPE": "0",
    "ELEMENT_SET_NO": "999",
    "REV_AT_EPOCH": "34287",
    "BSTAR": "0.00010577",
    "MEAN_MOTION_DOT": "-0.00000037",
    "MEAN_MOTION_DDOT": "0",
    "FILE": "3911388",
    "TLE_LINE0": "0 JASON 3",
    "TLE_LINE1": "1 41240U 16002A   23138.89041233 -.00000037  00000-0  10577-3 0  9991",
    "TLE_LINE2": "2 41240  66.0415 312.3652 0007602 272.0563  87.9582 12.80931478342873",
    "OBJECT_ID": "2016-002A",
    "OBJECT_NUMBER": "41240",
    "SEMIMAJOR_AXIS": "7715.864",
    "PERIOD": "112.418",
    "APOGEE": "1343.595",
    "PERIGEE": "1331.864",
    "DECAYED": "0"
  },
  {
    "COMMENT": "GENERATED VIA SPACETRACK.ORG API",
    "ORIGINATOR": "18 SPCS",
    "NORAD_CAT_ID": "41240",
    "OBJECT_NAME": "JASON 3",
    "OBJECT_TYPE": "PAYLOAD",
    "CLASSIFICATION_TYPE": "U",
    "INTLDES": "16002A",
    "EPOCH": "2023-05-19 17:58:54",
    "EPOCH_MICROSECONDS": "908832",
    "MEAN_MOTION": "12.80931448",
    "ECCENTRICITY": "0.0007605",
    "INCLINATION": "66.0414",
    "RA_OF_ASC_NODE": "310.5813",
    "ARG_OF_PERICENTER": "272.0319",
    "MEAN_ANOMALY": "87.9825",
    "EPHEMERIS_TYPE": "0",
    "ELEMENT_SET_NO": "999",
    "REV_AT_EPOCH": "34312",
    "BSTAR": "0.00004135",
    "MEAN_MOTION_DOT": "-0.00000052",
    "MEAN_MOTION_DDOT": "0",
    "FILE": "3912104",
    "TLE_LINE0": "0 JASON 3",
    "TLE_LINE1": "1 41240U 16002A   23139.74924663 -.00000052  00000-0  41350-4 0  9994",
    "TLE_LINE2": "2 41240  66.0414 310.5813 0007605 272.0319  87.9825 12.80931448343129",
    "OBJECT_ID": "2016-002A",
    "OBJECT_NUMBER": "41240",
    "SEMIMAJOR_AXIS": "7715.864",
    "PERIOD": "112.418",
    "APOGEE": "1343.597",
    "PERIGEE": "1331.861",
    "DECAYED": "0"
  },
  {
    "COMMENT": "GENERATED VIA SPACETRACK.ORG API",
    "ORIGINATOR": "18 SPCS",
    "NORAD_CAT_ID": "41240",
    "OBJECT_NAME": "JASON 3",
    "OBJECT_TYPE": "PAYLOAD",
    "CLASSIFICATION_TYPE": "U",
    "INTLDES": "16002A",
    "EPOCH": "2023-05-19 21:43:46",
    "EPOCH_MICROSECONDS": "413120",
    "MEAN_MOTION": "12.80931456",
    "ECCENTRICITY": "0.0007607",
    "INCLINATION": "66.0414",
    "RA_OF_ASC_NODE": "310.2569",
    "ARG_OF_PERICENTER": "272.0038",
    "MEAN_ANOMALY": "88.0106",
    "EPHEMERIS_TYPE": "0",
    "ELEMENT_SET_NO": "999",
    "REV_AT_EPOCH": "34300",
    "BSTAR": "0.00002923",
    "MEAN_MOTION_DOT": "-0.00000054",
    "MEAN_MOTION_DDOT": "0",
    "FILE": "3912278",
    "TLE_LINE0": "0 JASON 3",
    "TLE_LINE1": "1 41240U 16002A   23139.90539830 -.00000054  00000-0  29230-4 0  9995",
    "TLE_LINE2": "2 41240  66.0414 310.2569 0007607 272.0038  88.0106 12.80931456343004",
    "OBJECT_ID": "2016-002A",
    "OBJECT_NUMBER": "41240",
    "SEMIMAJOR_AXIS": "7715.864",
    "PERIOD": "112.418",
    "APOGEE": "1343.599",
    "PERIGEE": "1331.860",
    "DECAYED": "0"
  },
  {
    "COMMENT": "GENERATED VIA SPACETRACK.ORG API",
    "ORIGINATOR": "18 SPCS",
    "NORAD_CAT_ID": "41240",
    "OBJECT_NAME": "JASON 3",
    "OBJECT_TYPE": "PAYLOAD",
    "CLASSIFICATION_TYPE": "U",
    "INTLDES": "16002A",
    "EPOCH": "2023-05-20 18:20:29",
    "EPOCH_MICROSECONDS": "684544",
    "MEAN_MOTION": "12.80931575",
    "ECCENTRICITY": "0.000761",
    "INCLINATION": "66.0414",
    "RA_OF_ASC_NODE": "308.473",
    "ARG_OF_PERICENTER": "271.9416",
    "MEAN_ANOMALY": "88.0728",
    "EPHEMERIS_TYPE": "0",
    "ELEMENT_SET_NO": "999",
    "REV_AT_EPOCH": "34325",
    "BSTAR": "0.00013116",
    "MEAN_MOTION_DOT": "-0.00000031",
    "MEAN_MOTION_DDOT": "0",
    "FILE": "3912970",
    "TLE_LINE0": "0 JASON 3",
    "TLE_LINE1": "1 41240U 16002A   23140.76423246 -.00000031  00000-0  13116-3 0  9994",
    "TLE_LINE2": "2 41240  66.0414 308.4730 0007610 271.9416  88.0728 12.80931575343254",
    "OBJECT_ID": "2016-002A",
    "OBJECT_NUMBER": "41240",
    "SEMIMAJOR_AXIS": "7715.864",
    "PERIOD": "112.418",
    "APOGEE": "1343.601",
    "PERIGEE": "1331.857",
    "DECAYED": "0"
  }
]